[{"OBJECT_NAME":"FORMOSAT 7-2","OBJECT_ID":"2019-036N","EPOCH":"2026-03-09T11:02:55.703616","MEAN_MOTION":14.96019264,"ECCENTRICITY":9.711e-5,"INCLINATION":23.9982,"RA_OF_ASC_NODE":100.9036,"ARG_OF_PERICENTER":99.0828,"MEAN_ANOMALY":260.9782,"EPHEMERIS_TYPE":0,"CLASSIFICATION_TYPE":"U","NORAD_CAT_ID":44351,"ELEMENT_SET_NO":999,"REV_AT_EPOCH":36863,"BSTAR":0.00030629276,"MEAN_MOTION_DOT":3.823e-5,"MEAN_MOTION_DDOT":0},{"OBJECT_NAME":"STARLINK-3073","OBJECT_ID":"2021-082F","EPOCH":"2026-03-09T21:19:47.026272","MEAN_MOTION":14.98332652,"ECCENTRICITY":0.00020178,"INCLINATION":69.9986,"RA_OF_ASC_NODE":253.9333,"ARG_OF_PERICENTER":293.2771,"MEAN_ANOMALY":66.8175,"EPHEMERIS_TYPE":0,"CLASSIFICATION_TYPE":"U","NORAD_CAT_ID":49135,"ELEMENT_SET_NO":999,"REV_AT_EPOCH":24700,"BSTAR":4.3012385e-5,"MEAN_MOTION_DOT":4.2e-6,"MEAN_MOTION_DDOT":0}]
